ONEWEB-0446             
1 51640U 22012U   25123.89451518  .00000702  00000+0  19736-2 0  9993
2 51640  87.8794 117.8922 0002085  95.7156 264.4209 13.10373711155723
ONEWEB-0448             
1 51641U 22012V   25123.74677298  .00000596  00000+0  16702-2 0  9994
2 51641  87.8792 117.9214 0002082  86.8024 273.3342 13.10372790155676
ONEWEB-0449             
1 51642U 22012W   25123.90448243  .00000724  00000+0  20389-2 0  9998
2 51642  87.8784 117.8673 0002466  82.5089 277.6319 13.10371214155701
ONEWEB-0451             
1 51643U 22012X   25123.91289155  .00000016  00000+0  91283-5 0  9993
2 51643  87.9030  87.3326 0002247  83.4399 276.6989 13.17650067159769
ONEWEB-0452             
1 51644U 22012Y   25123.91120390  .00000035  00000+0  57835-4 0  9994
2 51644  87.9039  87.3923 0002247  77.8082 282.3301 13.17650088159774
ONEWEB-0456             
1 51646U 22012AA  25123.91442122 -.00000085  00000+0 -27883-3 0  9992
2 51646  87.8781 117.8260 0001783  88.8451 271.2881 13.10369176155749
ONEWEB-0457             
1 51647U 22012AB  25124.04390627  .00000681  00000+0  19135-2 0  9990
2 51647  87.8794 117.8508 0002419  90.3710 269.7694 13.10375143157064
ONEWEB-0458             
1 51648U 22012AC  25123.91276038 -.00000032  00000+0 -12654-3 0  9997
2 51648  87.8774 117.8652 0002018  84.5784 275.5574 13.10370562155705
